GPS BIIR-5  (PRN 22)    
1 26407U 00040A   26144.10194399 -.00000017  00000+0  00000+0 0  9993
2 26407  54.8549 216.1190 0121348 302.3676 231.1326  2.00557484189463
GPS BIIR-8  (PRN 16)    
1 27663U 03005A   26144.18802497 -.00000016  00000+0  00000+0 0  9994
2 27663  54.8859 215.9224 0147951  53.0198 318.3135  2.00561852170835
GPS BIIR-11 (PRN 19)    
1 28190U 04009A   26143.95476970 -.00000069  00000+0  00000+0 0  9990
2 28190  54.8506 276.6659 0115053 172.0098 184.6006  2.00555471162455
GPS BIIR-13 (PRN 02)    
1 28474U 04045A   26144.12570112 -.00000082  00000+0  00000+0 0  9993
2 28474  55.1504 325.8648 0169834 315.7950 229.2307  2.00554795157942
GPS BIIRM-1 (PRN 17)    
1 28874U 05038A   26143.44024528 -.00000063  00000+0  00000+0 0  9998
2 28874  54.8990 274.1758 0127716 295.9981  76.7463  2.00567343151344
GPS BIIRM-2 (PRN 31)    
1 29486U 06042A   26144.18541852  .00000084  00000+0  00000+0 0  9992
2 29486  54.7072 152.2917 0106234  53.8958  34.9987  2.00571199143919
GPS BIIRM-3 (PRN 12)    
1 29601U 06052A   26143.48872434 -.00000016  00000+0  00000+0 0  9993
2 29601  54.9380 214.9853 0085637  90.6173 270.4229  2.00556806142911
GPS BIIRM-4 (PRN 15)    
1 32260U 07047A   26143.79352459 -.00000022  00000+0  00000+0 0  9994
2 32260  54.0779  81.0705 0165811  86.9172 274.9564  2.00556417136325
GPS BIIRM-5 (PRN 29)    
1 32384U 07062A   26143.85935497 -.00000067  00000+0  00000+0 0  9993
2 32384  55.0519 275.1302 0035273 164.0429  10.5484  2.00558582135021
GPS BIIRM-6 (PRN 07)    
1 32711U 08012A   26143.70695550  .00000079  00000+0  00000+0 0  9992
2 32711  54.4935 150.9026 0210671 247.5219 110.2574  2.00571769133268
GPS BIIRM-8 (PRN 05)    
1 35752U 09043A   26143.94275529 -.00000105  00000+0  00000+0 0  9992
2 35752  56.1956  28.4038 0053503  82.2236  99.5813  2.00555554122876
GPS BIIF-1  (PRN 25)    
1 36585U 10022A   26143.78349725 -.00000007  00000+0  00000+0 0  9999
2 36585  54.2724 209.5453 0126358  66.1078 118.5533  2.00561193117107
GPS BIIF-3  (PRN 24)    
1 38833U 12053A   26143.88648081  .00000080  00000+0  00000+0 0  9991
2 38833  53.5810 144.5946 0179068  65.4307 296.4407  2.00567062 98959
GPS BIIF-4  (PRN 27)    
1 39166U 13023A   26143.75276942 -.00000066  00000+0  00000+0 0  9993
2 39166  54.5238 269.9686 0141741  50.9086 310.3316  2.00563595 95394
GPS BIIF-5  (PRN 30)    
1 39533U 14008A   26143.25551718  .00000073  00000+0  00000+0 0  9994
2 39533  53.6502 150.3365 0084148 230.8236 128.4481  2.00558182 89183
GPS BIIF-6  (PRN 06)    
1 39741U 14026A   26144.02953551 -.00000081  00000+0  00000+0 0  9992
2 39741  56.5099 332.4576 0038444 326.8943  32.8774  2.00562779 88058
GPS BIIF-7  (PRN 09)    
1 40105U 14045A   26143.62231743  .00000002  00000+0  00000+0 0  9998
2 40105  55.3379  89.4432 0032375 118.5386 241.7631  2.00556769 85586
GPS BIIF-8  (PRN 03)    
1 40294U 14068A   26143.99276302 -.00000103  00000+0  00000+0 0  9995
2 40294  56.9715  31.8868 0066373  69.7282 291.0179  2.00574728 84722
GPS BIIF-9  (PRN 26)    
1 40534U 15013A   26143.63087759 -.00000001  00000+0  00000+0 0  9997
2 40534  53.1699 205.1932 0109105  40.0294 320.8357  2.00552835 81331
GPS BIIF-10 (PRN 08)    
1 40730U 15033A   26143.29128913 -.00000062  00000+0  00000+0 0  9994
2 40730  54.0024 268.1127 0115010  30.1230 330.5242  2.00557514 79492
GPS BIIF-11 (PRN 10)    
1 41019U 15062A   26143.84690608 -.00000102  00000+0  00000+0 0  9998
2 41019  56.9435  31.7488 0111389 231.2841 127.7487  2.00566997 77345
GPS BIIF-12 (PRN 32)    
1 41328U 16007A   26143.93626749  .00000002  00000+0  00000+0 0  9994
2 41328  55.5099  90.4206 0096101 247.3168 111.6409  2.00552819 75356
GPS BIII-1  (PRN 04)    
1 43873U 18109A   26143.58881919  .00000011  00000+0  00000+0 0  9999
2 43873  55.6683  93.1564 0037988 198.5136 164.1984  2.00560515 54585
GPS BIII-2  (PRN 18)    
1 44506U 19056A   26143.95915727 -.00000083  00000+0  00000+0 0  9991
2 44506  55.6494 332.1046 0060789 197.3495 335.7568  2.00569471 49588
GPS BIII-3  (PRN 23)    
1 45854U 20041A   26142.05045964 -.00000093  00000+0  00000+0 0  9992
2 45854  56.6536  29.9571 0062927 204.8500 329.5146  2.00559133 43518
GPS BIII-4  (PRN 14)    
1 46826U 20078A   26143.57550161 -.00000012  00000+0  00000+0 0  9991
2 46826  53.9827 211.7767 0072430 206.5729 324.4617  2.00564859 41012
GPS BIII-5  (PRN 11)    
1 48859U 21054A   26137.34480044 -.00000068  00000+0  00000+0 0  9995
2 48859  55.1878 333.6992 0024563 229.1356 308.8651  2.00570737 36138
GPS BIII-6  (PRN 28)    
1 55268U 23009A   26142.53471350  .00000069  00000+0  00000+0 0  9996
2 55268  55.1207 149.5238 0008482 318.2622  45.1799  2.00573116 24732
GPS BIII-7  (PRN 01)    
1 62339U 24242A   26143.66691068 -.00000087  00000+0  00000+0 0  9999
2 62339  54.8596 335.1744 0017374   3.8345 179.6490  2.00571082 10769
GPS BIII-8  (PRN 21)    
1 64202U 25116A   26142.41287073 -.00000095  00000+0  00000+0 0  9999
2 64202  55.2187  32.1672 0008532 336.0390 204.2739  2.00577592  7356
GPS BIII-9  (PRN 20)    
1 67588U 26017A   26143.76783852  .00000001  00000+0  00000+0 0  9991
2 67588  55.0735  89.7348 0022680 256.3938 103.3290  2.00571610431125
GPS BIII-10 (PRN 13)    
1 68791U 26087A   26139.48610789  .00000028  00000+0  00000+0 0  9996
2 68791  54.9639 208.9229 0005154 271.7816  81.6763  2.00570690   255
